{
"type": "FeatureCollection",
"crs": { "type": "name", "properties": { "name": "urn:ogc:def:crs:EPSG::4269" } },
"features": [
{ "type": "Feature", "properties": { "current_mw": 24.0 }, "geometry": { "type": "Point", "coordinates": [ -78.315770814593009, 36.746023268873884 ] } },
{ "type": "Feature", "properties": { "current_mw": 24.0 }, "geometry": { "type": "Point", "coordinates": [ -82.959941821248009, 40.376127672262747 ] } },
{ "type": "Feature", "properties": { "current_mw": 15.0 }, "geometry": { "type": "Point", "coordinates": [ -82.984900060838712, 40.079261281380354 ] } },
{ "type": "Feature", "properties": { "current_mw": 25.0 }, "geometry": { "type": "Point", "coordinates": [ -95.61790838586856, 41.301941354826972 ] } },
{ "type": "Feature", "properties": { "current_mw": 40.0 }, "geometry": { "type": "Point", "coordinates": [ -93.899931117831457, 41.265886618023899 ] } },
{ "type": "Feature", "properties": { "current_mw": 16.0 }, "geometry": { "type": "Point", "coordinates": [ -77.79864290137246, 38.781457319613978 ] } },
{ "type": "Feature", "properties": { "current_mw": 18.0 }, "geometry": { "type": "Point", "coordinates": [ -77.504848619366541, 38.575198945941423 ] } },
{ "type": "Feature", "properties": { "current_mw": 50.0 }, "geometry": { "type": "Point", "coordinates": [ -88.784283551698309, 41.645014667463677 ] } },
{ "type": "Feature", "properties": { "current_mw": 60.0 }, "geometry": { "type": "Point", "coordinates": [ -83.178887231500866, 39.87449582661425 ] } },
{ "type": "Feature", "properties": { "current_mw": 24.0 }, "geometry": { "type": "Point", "coordinates": [ -120.05811764582171, 47.170861826892633 ] } },
{ "type": "Feature", "properties": { "current_mw": 15.0 }, "geometry": { "type": "Point", "coordinates": [ -104.807486205027431, 40.105563308471204 ] } },
{ "type": "Feature", "properties": { "current_mw": 25.0 }, "geometry": { "type": "Point", "coordinates": [ -77.292139312914117, 38.723564056452084 ] } },
{ "type": "Feature", "properties": { "current_mw": 26.0 }, "geometry": { "type": "Point", "coordinates": [ -83.186677460487644, 40.109556298518889 ] } },
{ "type": "Feature", "properties": { "current_mw": 17.0 }, "geometry": { "type": "Point", "coordinates": [ -121.776403758606392, 37.413073713333283 ] } },
{ "type": "Feature", "properties": { "current_mw": 42.0 }, "geometry": { "type": "Point", "coordinates": [ -78.271518131549598, 36.629925381127606 ] } },
{ "type": "Feature", "properties": { "current_mw": 240.0 }, "geometry": { "type": "Point", "coordinates": [ -82.940853692576553, 40.259448865060918 ] } },
{ "type": "Feature", "properties": { "current_mw": 38.0 }, "geometry": { "type": "Point", "coordinates": [ -77.162673207051597, 37.591113423304584 ] } },
{ "type": "Feature", "properties": { "current_mw": 40.0 }, "geometry": { "type": "Point", "coordinates": [ -119.512295843820809, 46.171351823553344 ] } },
{ "type": "Feature", "properties": { "current_mw": 40.0 }, "geometry": { "type": "Point", "coordinates": [ -112.162897486924535, 33.533216357738318 ] } },
{ "type": "Feature", "properties": { "current_mw": 50.0 }, "geometry": { "type": "Point", "coordinates": [ -77.630480015689955, 38.662170381959761 ] } },
{ "type": "Feature", "properties": { "current_mw": 18.0 }, "geometry": { "type": "Point", "coordinates": [ -98.675520472709053, 29.406089236623899 ] } },
{ "type": "Feature", "properties": { "current_mw": 16.0 }, "geometry": { "type": "Point", "coordinates": [ -88.108404384551889, 42.07173431361835 ] } },
{ "type": "Feature", "properties": { "current_mw": 30.0 }, "geometry": { "type": "Point", "coordinates": [ -79.799224732265202, 33.099443671690743 ] } },
{ "type": "Feature", "properties": { "current_mw": 16.0 }, "geometry": { "type": "Point", "coordinates": [ -119.685176396413752, 45.624199685553229 ] } },
{ "type": "Feature", "properties": { "current_mw": 30.0 }, "geometry": { "type": "Point", "coordinates": [ -106.865156061501622, 34.844176685794274 ] } },
{ "type": "Feature", "properties": { "current_mw": 42.0 }, "geometry": { "type": "Point", "coordinates": [ -83.776440643033354, 33.646562778728082 ] } },
{ "type": "Feature", "properties": { "current_mw": 28.0 }, "geometry": { "type": "Point", "coordinates": [ -77.343773162889235, 39.497544807506785 ] } },
{ "type": "Feature", "properties": { "current_mw": 42.217500060136722 }, "geometry": { "type": "Point", "coordinates": [ -77.341176487127186, 39.401460122256339 ] } },
{ "type": "Feature", "properties": { "current_mw": 16.0 }, "geometry": { "type": "Point", "coordinates": [ -78.295061457447403, 36.518696703360632 ] } },
{ "type": "Feature", "properties": { "current_mw": 40.0 }, "geometry": { "type": "Point", "coordinates": [ -112.278808048528433, 33.35276031091437 ] } },
{ "type": "Feature", "properties": { "current_mw": 42.0 }, "geometry": { "type": "Point", "coordinates": [ -77.078102907984714, 38.441431429445998 ] } },
{ "type": "Feature", "properties": { "current_mw": 28.0 }, "geometry": { "type": "Point", "coordinates": [ -77.523486703276916, 38.869370897207304 ] } },
{ "type": "Feature", "properties": { "current_mw": 100.0 }, "geometry": { "type": "Point", "coordinates": [ -81.365155705036813, 35.651224645874969 ] } },
{ "type": "Feature", "properties": { "current_mw": 22.0 }, "geometry": { "type": "Point", "coordinates": [ -77.580166245649579, 39.22259132417765 ] } },
{ "type": "Feature", "properties": { "current_mw": 36.0 }, "geometry": { "type": "Point", "coordinates": [ -120.7465306282119, 44.141510192363477 ] } },
{ "type": "Feature", "properties": { "current_mw": 20.0 }, "geometry": { "type": "Point", "coordinates": [ -79.820326541295131, 32.933645906240542 ] } },
{ "type": "Feature", "properties": { "current_mw": 18.0 }, "geometry": { "type": "Point", "coordinates": [ -98.411632591530974, 28.872458594052269 ] } },
{ "type": "Feature", "properties": { "current_mw": 50.0 }, "geometry": { "type": "Point", "coordinates": [ -83.383933016946713, 40.101723825836515 ] } },
{ "type": "Feature", "properties": { "current_mw": 1.0 }, "geometry": { "type": "Point", "coordinates": [ -77.620054243138242, 38.685455117628088 ] } },
{ "type": "Feature", "properties": { "current_mw": 160.0 }, "geometry": { "type": "Point", "coordinates": [ -96.016220442435056, 41.016935114526781 ] } },
{ "type": "Feature", "properties": { "current_mw": 50.0 }, "geometry": { "type": "Point", "coordinates": [ -121.052377365759313, 45.456533044366481 ] } },
{ "type": "Feature", "properties": { "current_mw": 48.0 }, "geometry": { "type": "Point", "coordinates": [ -119.786513133552958, 47.218367526217982 ] } },
{ "type": "Feature", "properties": { "current_mw": 64.0 }, "geometry": { "type": "Point", "coordinates": [ -78.236828644261934, 36.39101528187927 ] } },
{ "type": "Feature", "properties": { "current_mw": 32.0 }, "geometry": { "type": "Point", "coordinates": [ -77.47409373538666, 38.654902950921802 ] } },
{ "type": "Feature", "properties": { "current_mw": 14.0 }, "geometry": { "type": "Point", "coordinates": [ -77.427351838171845, 39.452146422405661 ] } },
{ "type": "Feature", "properties": { "current_mw": 50.0 }, "geometry": { "type": "Point", "coordinates": [ -83.158278280654201, 39.859970483745194 ] } },
{ "type": "Feature", "properties": { "current_mw": 50.0 }, "geometry": { "type": "Point", "coordinates": [ -93.750099265718362, 41.397414477241973 ] } },
{ "type": "Feature", "properties": { "current_mw": 200.0 }, "geometry": { "type": "Point", "coordinates": [ -95.280179890245066, 36.612457705664262 ] } },
{ "type": "Feature", "properties": { "current_mw": 16.0 }, "geometry": { "type": "Point", "coordinates": [ -78.240763034669712, 37.270504323075677 ] } },
{ "type": "Feature", "properties": { "current_mw": 16.0 }, "geometry": { "type": "Point", "coordinates": [ -77.437207604107712, 38.801305808384136 ] } },
{ "type": "Feature", "properties": { "current_mw": 50.0 }, "geometry": { "type": "Point", "coordinates": [ -77.460584320262001, 38.6743659086424 ] } },
{ "type": "Feature", "properties": { "current_mw": 100.0 }, "geometry": { "type": "Point", "coordinates": [ -95.677309522987287, 41.245789959484007 ] } },
{ "type": "Feature", "properties": { "current_mw": 44.0 }, "geometry": { "type": "Point", "coordinates": [ -77.769734963971047, 39.26037672888112 ] } },
{ "type": "Feature", "properties": { "current_mw": 300.0 }, "geometry": { "type": "Point", "coordinates": [ -97.322399743271461, 32.787092584314358 ] } },
{ "type": "Feature", "properties": { "current_mw": 60.0 }, "geometry": { "type": "Point", "coordinates": [ -87.355133030858468, 36.569906630811573 ] } },
{ "type": "Feature", "properties": { "current_mw": 5.0 }, "geometry": { "type": "Point", "coordinates": [ -119.992330852808664, 47.394032067058347 ] } },
{ "type": "Feature", "properties": { "current_mw": 24.0 }, "geometry": { "type": "Point", "coordinates": [ -77.488838683202033, 39.106034890846423 ] } },
{ "type": "Feature", "properties": { "current_mw": 24.0 }, "geometry": { "type": "Point", "coordinates": [ -77.135703327929122, 38.94498495076958 ] } },
{ "type": "Feature", "properties": { "current_mw": 30.0 }, "geometry": { "type": "Point", "coordinates": [ -93.689586540152547, 41.641820841496795 ] } },
{ "type": "Feature", "properties": { "current_mw": 50.0 }, "geometry": { "type": "Point", "coordinates": [ -119.354616649702706, 39.2913686632603 ] } },
{ "type": "Feature", "properties": { "current_mw": 15.0 }, "geometry": { "type": "Point", "coordinates": [ -99.218498444012155, 29.376868908988268 ] } },
{ "type": "Feature", "properties": { "current_mw": 16.0 }, "geometry": { "type": "Point", "coordinates": [ -78.442721593448866, 36.629531108410909 ] } },
{ "type": "Feature", "properties": { "current_mw": 40.0 }, "geometry": { "type": "Point", "coordinates": [ -93.830706356015199, 41.581489488745056 ] } },
{ "type": "Feature", "properties": { "current_mw": 42.0 }, "geometry": { "type": "Point", "coordinates": [ -78.249205533728144, 36.581484556236191 ] } },
{ "type": "Feature", "properties": { "current_mw": 250.0 }, "geometry": { "type": "Point", "coordinates": [ -86.492410684041317, 34.933791604509025 ] } },
{ "type": "Feature", "properties": { "current_mw": 18.6 }, "geometry": { "type": "Point", "coordinates": [ -77.168798252960016, 37.564024663563963 ] } },
{ "type": "Feature", "properties": { "current_mw": 158.0 }, "geometry": { "type": "Point", "coordinates": [ -87.989069914449601, 41.952367965533689 ] } },
{ "type": "Feature", "properties": { "current_mw": 16.0 }, "geometry": { "type": "Point", "coordinates": [ -77.634091236180808, 38.849642365744344 ] } },
{ "type": "Feature", "properties": { "current_mw": 100.0 }, "geometry": { "type": "Point", "coordinates": [ -95.631672596426469, 41.186318105687775 ] } },
{ "type": "Feature", "properties": { "current_mw": 30.0 }, "geometry": { "type": "Point", "coordinates": [ -106.815521836535325, 34.830314188070183 ] } },
{ "type": "Feature", "properties": { "current_mw": 60.0 }, "geometry": { "type": "Point", "coordinates": [ -119.616300817502577, 45.653450278142927 ] } },
{ "type": "Feature", "properties": { "current_mw": 60.0 }, "geometry": { "type": "Point", "coordinates": [ -120.434413958904699, 47.480146270720958 ] } },
{ "type": "Feature", "properties": { "current_mw": 16.0 }, "geometry": { "type": "Point", "coordinates": [ -77.724601457200322, 38.771037680317299 ] } },
{ "type": "Feature", "properties": { "current_mw": 38.0 }, "geometry": { "type": "Point", "coordinates": [ -77.126695518904057, 37.896976570939515 ] } },
{ "type": "Feature", "properties": { "current_mw": 48.0 }, "geometry": { "type": "Point", "coordinates": [ -77.527404452785888, 39.263035380495054 ] } },
{ "type": "Feature", "properties": { "current_mw": 50.0 }, "geometry": { "type": "Point", "coordinates": [ -81.122171435425543, 35.664210909646201 ] } },
{ "type": "Feature", "properties": { "current_mw": 76.0 }, "geometry": { "type": "Point", "coordinates": [ -95.95035102926721, 41.068749158061046 ] } },
{ "type": "Feature", "properties": { "current_mw": 8.0 }, "geometry": { "type": "Point", "coordinates": [ -77.404693561784654, 38.768981005603315 ] } },
{ "type": "Feature", "properties": { "current_mw": 50.0 }, "geometry": { "type": "Point", "coordinates": [ -119.143482287269535, 46.046521772584875 ] } },
{ "type": "Feature", "properties": { "current_mw": 30.0 }, "geometry": { "type": "Point", "coordinates": [ -119.925996505536048, 47.292823877160224 ] } },
{ "type": "Feature", "properties": { "current_mw": 20.0 }, "geometry": { "type": "Point", "coordinates": [ -86.27373685268941, 36.508041523877523 ] } },
{ "type": "Feature", "properties": { "current_mw": 17.0 }, "geometry": { "type": "Point", "coordinates": [ -122.164303688213337, 47.342226202605062 ] } },
{ "type": "Feature", "properties": { "current_mw": 14.0 }, "geometry": { "type": "Point", "coordinates": [ -119.727571769313016, 46.025757696311636 ] } },
{ "type": "Feature", "properties": { "current_mw": 50.0 }, "geometry": { "type": "Point", "coordinates": [ -81.898303478799576, 35.404639367642872 ] } },
{ "type": "Feature", "properties": { "current_mw": 50.0 }, "geometry": { "type": "Point", "coordinates": [ -111.867279091945818, 33.124359724097808 ] } },
{ "type": "Feature", "properties": { "current_mw": 42.0 }, "geometry": { "type": "Point", "coordinates": [ -77.408805503842885, 38.641495038510008 ] } },
{ "type": "Feature", "properties": { "current_mw": 28.0 }, "geometry": { "type": "Point", "coordinates": [ -77.574204468040534, 38.968599440871301 ] } },
{ "type": "Feature", "properties": { "current_mw": 90.0 }, "geometry": { "type": "Point", "coordinates": [ -96.134405376254364, 41.132342759671253 ] } },
{ "type": "Feature", "properties": { "current_mw": 40.0 }, "geometry": { "type": "Point", "coordinates": [ -96.966429044356829, 32.38380974680139 ] } },
{ "type": "Feature", "properties": { "current_mw": 24.0 }, "geometry": { "type": "Point", "coordinates": [ -120.780482911608999, 44.265116057019412 ] } },
{ "type": "Feature", "properties": { "current_mw": 36.0 }, "geometry": { "type": "Point", "coordinates": [ -120.737087929544444, 44.238500738643921 ] } },
{ "type": "Feature", "properties": { "current_mw": 40.0 }, "geometry": { "type": "Point", "coordinates": [ -80.059441096901878, 33.092599502420491 ] } },
{ "type": "Feature", "properties": { "current_mw": 12.0 }, "geometry": { "type": "Point", "coordinates": [ -77.522047362408827, 39.284986594598635 ] } },
{ "type": "Feature", "properties": { "current_mw": 20.0 }, "geometry": { "type": "Point", "coordinates": [ -80.057226047835186, 32.551004803108036 ] } },
{ "type": "Feature", "properties": { "current_mw": 24.0 }, "geometry": { "type": "Point", "coordinates": [ -77.831872886791601, 38.869539347098062 ] } },
{ "type": "Feature", "properties": { "current_mw": 50.0 }, "geometry": { "type": "Point", "coordinates": [ -89.011998281844413, 41.924042462911991 ] } },
{ "type": "Feature", "properties": { "current_mw": 60.0 }, "geometry": { "type": "Point", "coordinates": [ -119.874026522470871, 45.91894109793742 ] } },
{ "type": "Feature", "properties": { "current_mw": 40.0 }, "geometry": { "type": "Point", "coordinates": [ -77.697474765520298, 38.883504183735745 ] } },
{ "type": "Feature", "properties": { "current_mw": 50.0 }, "geometry": { "type": "Point", "coordinates": [ -119.26180160111231, 45.528401870009581 ] } },
{ "type": "Feature", "properties": { "current_mw": 30.0 }, "geometry": { "type": "Point", "coordinates": [ -80.224840811072013, 33.127744096742823 ] } },
{ "type": "Feature", "properties": { "current_mw": 30.0 }, "geometry": { "type": "Point", "coordinates": [ -119.937862458217879, 47.58581486011844 ] } },
{ "type": "Feature", "properties": { "current_mw": 25.0 }, "geometry": { "type": "Point", "coordinates": [ -119.370395210338785, 45.547275226173575 ] } },
{ "type": "Feature", "properties": { "current_mw": 5.0 }, "geometry": { "type": "Point", "coordinates": [ -77.524567794212288, 39.07242660273954 ] } },
{ "type": "Feature", "properties": { "current_mw": 30.0 }, "geometry": { "type": "Point", "coordinates": [ -77.294521886306583, 38.925346955375424 ] } },
{ "type": "Feature", "properties": { "current_mw": 22.0 }, "geometry": { "type": "Point", "coordinates": [ -77.706639536001973, 38.937667130834228 ] } },
{ "type": "Feature", "properties": { "current_mw": 50.0 }, "geometry": { "type": "Point", "coordinates": [ -111.672745329836516, 33.136664067842709 ] } },
{ "type": "Feature", "properties": { "current_mw": 16.0 }, "geometry": { "type": "Point", "coordinates": [ -97.85599721098211, 30.202440365528826 ] } },
{ "type": "Feature", "properties": { "current_mw": 55.0 }, "geometry": { "type": "Point", "coordinates": [ -119.762664916015112, 46.096049379207791 ] } },
{ "type": "Feature", "properties": { "current_mw": 10.0 }, "geometry": { "type": "Point", "coordinates": [ -81.094139595611921, 35.702580376201738 ] } },
{ "type": "Feature", "properties": { "current_mw": 50.0 }, "geometry": { "type": "Point", "coordinates": [ -111.971437859108462, 33.693607987888186 ] } },
{ "type": "Feature", "properties": { "current_mw": 15.0 }, "geometry": { "type": "Point", "coordinates": [ -78.289482271290836, 36.93040437779554 ] } },
{ "type": "Feature", "properties": { "current_mw": 35.0 }, "geometry": { "type": "Point", "coordinates": [ -84.575847744387445, 33.817825141008612 ] } },
{ "type": "Feature", "properties": { "current_mw": 36.0 }, "geometry": { "type": "Point", "coordinates": [ -120.002036388480363, 47.58554578094666 ] } },
{ "type": "Feature", "properties": { "current_mw": 20.0 }, "geometry": { "type": "Point", "coordinates": [ -83.041297570877703, 40.18436563174766 ] } },
{ "type": "Feature", "properties": { "current_mw": 20.0 }, "geometry": { "type": "Point", "coordinates": [ -82.732474498457222, 40.259616335359411 ] } },
{ "type": "Feature", "properties": { "current_mw": 60.0 }, "geometry": { "type": "Point", "coordinates": [ -83.281106141812757, 39.98877280929306 ] } },
{ "type": "Feature", "properties": { "current_mw": 40.0 }, "geometry": { "type": "Point", "coordinates": [ -86.320163609683163, 36.424835377103143 ] } },
{ "type": "Feature", "properties": { "current_mw": 50.0 }, "geometry": { "type": "Point", "coordinates": [ -82.727841589015014, 39.953996766202245 ] } },
{ "type": "Feature", "properties": { "current_mw": 35.0 }, "geometry": { "type": "Point", "coordinates": [ -98.48414310492241, 29.614453648470171 ] } },
{ "type": "Feature", "properties": { "current_mw": 28.0 }, "geometry": { "type": "Point", "coordinates": [ -77.596217225494613, 38.554258875377023 ] } },
{ "type": "Feature", "properties": { "current_mw": 15.0 }, "geometry": { "type": "Point", "coordinates": [ -83.339806538822373, 40.216548992389733 ] } },
{ "type": "Feature", "properties": { "current_mw": 60.0 }, "geometry": { "type": "Point", "coordinates": [ -119.572854973008731, 45.821623488498965 ] } },
{ "type": "Feature", "properties": { "current_mw": 40.0 }, "geometry": { "type": "Point", "coordinates": [ -120.834184410297638, 44.533444607348166 ] } },
{ "type": "Feature", "properties": { "current_mw": 45.0 }, "geometry": { "type": "Point", "coordinates": [ -77.287633484951911, 39.219866797746256 ] } },
{ "type": "Feature", "properties": { "current_mw": 30.0 }, "geometry": { "type": "Point", "coordinates": [ -77.326300750817083, 39.281507231529361 ] } },
{ "type": "Feature", "properties": { "current_mw": 50.0 }, "geometry": { "type": "Point", "coordinates": [ -111.558365437366092, 33.492626960275132 ] } },
{ "type": "Feature", "properties": { "current_mw": 55.0 }, "geometry": { "type": "Point", "coordinates": [ -119.395940401885085, 45.52358294630455 ] } },
{ "type": "Feature", "properties": { "current_mw": 40.0 }, "geometry": { "type": "Point", "coordinates": [ -94.024826610864579, 41.485557365420355 ] } },
{ "type": "Feature", "properties": { "current_mw": 70.0 }, "geometry": { "type": "Point", "coordinates": [ -96.212675910533051, 41.104746554669333 ] } },
{ "type": "Feature", "properties": { "current_mw": 42.0 }, "geometry": { "type": "Point", "coordinates": [ -78.551197188281108, 36.556137031526745 ] } },
{ "type": "Feature", "properties": { "current_mw": 50.0 }, "geometry": { "type": "Point", "coordinates": [ -119.419643050759163, 46.184798482378945 ] } },
{ "type": "Feature", "properties": { "current_mw": 17.0 }, "geometry": { "type": "Point", "coordinates": [ -77.838334429511264, 39.202928762179539 ] } },
{ "type": "Feature", "properties": { "current_mw": 50.0 }, "geometry": { "type": "Point", "coordinates": [ -77.432123510637112, 38.808239114284248 ] } },
{ "type": "Feature", "properties": { "current_mw": 50.0 }, "geometry": { "type": "Point", "coordinates": [ -119.276240169739751, 45.718029346308917 ] } },
{ "type": "Feature", "properties": { "current_mw": 40.0 }, "geometry": { "type": "Point", "coordinates": [ -80.332511258900524, 33.068591418575252 ] } },
{ "type": "Feature", "properties": { "current_mw": 18.0 }, "geometry": { "type": "Point", "coordinates": [ -77.630230816241507, 38.738397970123771 ] } },
{ "type": "Feature", "properties": { "current_mw": 50.0 }, "geometry": { "type": "Point", "coordinates": [ -77.558274529388456, 38.667716370030782 ] } },
{ "type": "Feature", "properties": { "current_mw": 37.5 }, "geometry": { "type": "Point", "coordinates": [ -119.198991686421124, 45.86023039431025 ] } },
{ "type": "Feature", "properties": { "current_mw": 15.0 }, "geometry": { "type": "Point", "coordinates": [ -82.73524312166164, 40.290188607221339 ] } },
{ "type": "Feature", "properties": { "current_mw": 42.0 }, "geometry": { "type": "Point", "coordinates": [ -77.781997506798533, 36.778864294444887 ] } },
{ "type": "Feature", "properties": { "current_mw": 60.0 }, "geometry": { "type": "Point", "coordinates": [ -120.124784271430798, 46.960103379895479 ] } },
{ "type": "Feature", "properties": { "current_mw": 30.0 }, "geometry": { "type": "Point", "coordinates": [ -93.70598277357287, 41.726445070590849 ] } },
{ "type": "Feature", "properties": { "current_mw": 50.0 }, "geometry": { "type": "Point", "coordinates": [ -77.954596594384356, 38.95635664128902 ] } },
{ "type": "Feature", "properties": { "current_mw": 50.0 }, "geometry": { "type": "Point", "coordinates": [ -79.985130707531241, 33.147171057074544 ] } },
{ "type": "Feature", "properties": { "current_mw": 20.0 }, "geometry": { "type": "Point", "coordinates": [ -80.208862219062055, 33.38528093633024 ] } },
{ "type": "Feature", "properties": { "current_mw": 30.0 }, "geometry": { "type": "Point", "coordinates": [ -77.553820184296143, 38.583402729593054 ] } },
{ "type": "Feature", "properties": { "current_mw": 55.0 }, "geometry": { "type": "Point", "coordinates": [ -119.816621120439962, 45.719263272388474 ] } },
{ "type": "Feature", "properties": { "current_mw": 35.0 }, "geometry": { "type": "Point", "coordinates": [ -98.831101377283275, 29.532185464558673 ] } },
{ "type": "Feature", "properties": { "current_mw": 30.0 }, "geometry": { "type": "Point", "coordinates": [ -77.22796689503366, 38.675529996790416 ] } },
{ "type": "Feature", "properties": { "current_mw": 40.0 }, "geometry": { "type": "Point", "coordinates": [ -84.552504786510838, 34.043788809610703 ] } },
{ "type": "Feature", "properties": { "current_mw": 40.0 }, "geometry": { "type": "Point", "coordinates": [ -78.409761967407732, 36.766732322540129 ] } },
{ "type": "Feature", "properties": { "current_mw": 50.0 }, "geometry": { "type": "Point", "coordinates": [ -81.47159907884155, 35.759748880612484 ] } },
{ "type": "Feature", "properties": { "current_mw": 25.0 }, "geometry": { "type": "Point", "coordinates": [ -83.53433258894087, 39.988375367695646 ] } },
{ "type": "Feature", "properties": { "current_mw": 30.0 }, "geometry": { "type": "Point", "coordinates": [ -106.875371145457663, 34.988831467461942 ] } },
{ "type": "Feature", "properties": { "current_mw": 42.0 }, "geometry": { "type": "Point", "coordinates": [ -78.37399251016366, 36.873218311197803 ] } },
{ "type": "Feature", "properties": { "current_mw": 40.0 }, "geometry": { "type": "Point", "coordinates": [ -112.011588641972025, 33.454507457532031 ] } },
{ "type": "Feature", "properties": { "current_mw": 50.0 }, "geometry": { "type": "Point", "coordinates": [ -77.596080556736013, 38.84987411630064 ] } },
{ "type": "Feature", "properties": { "current_mw": 20.0 }, "geometry": { "type": "Point", "coordinates": [ -77.342328631405081, 38.832701826988249 ] } },
{ "type": "Feature", "properties": { "current_mw": 12.0 }, "geometry": { "type": "Point", "coordinates": [ -77.548363719707723, 38.817946347052128 ] } },
{ "type": "Feature", "properties": { "current_mw": 42.46270942937975 }, "geometry": { "type": "Point", "coordinates": [ -77.716186653283401, 38.971314863951925 ] } },
{ "type": "Feature", "properties": { "current_mw": 40.0 }, "geometry": { "type": "Point", "coordinates": [ -84.779963234521674, 33.721709214290726 ] } },
{ "type": "Feature", "properties": { "current_mw": 20.0 }, "geometry": { "type": "Point", "coordinates": [ -80.186168212907148, 33.138744772870702 ] } },
{ "type": "Feature", "properties": { "current_mw": 30.0 }, "geometry": { "type": "Point", "coordinates": [ -120.461342357306975, 44.495741967172954 ] } },
{ "type": "Feature", "properties": { "current_mw": 22.0 }, "geometry": { "type": "Point", "coordinates": [ -83.363557135844871, 39.890106883604318 ] } },
{ "type": "Feature", "properties": { "current_mw": 20.0 }, "geometry": { "type": "Point", "coordinates": [ -73.835689459252734, 40.716466993936088 ] } },
{ "type": "Feature", "properties": { "current_mw": 36.0 }, "geometry": { "type": "Point", "coordinates": [ -78.5551758196452, 36.974306331423094 ] } },
{ "type": "Feature", "properties": { "current_mw": 6.0 }, "geometry": { "type": "Point", "coordinates": [ -77.248473097425148, 38.872890054237487 ] } },
{ "type": "Feature", "properties": { "current_mw": 30.0 }, "geometry": { "type": "Point", "coordinates": [ -77.575061906778828, 38.652388796541935 ] } },
{ "type": "Feature", "properties": { "current_mw": 35.0 }, "geometry": { "type": "Point", "coordinates": [ -77.591990049931326, 38.988547768419338 ] } },
{ "type": "Feature", "properties": { "current_mw": 50.0 }, "geometry": { "type": "Point", "coordinates": [ -77.524578905227088, 38.915648038097068 ] } },
{ "type": "Feature", "properties": { "current_mw": 12.5 }, "geometry": { "type": "Point", "coordinates": [ -119.99486507176789, 47.241774066391528 ] } },
{ "type": "Feature", "properties": { "current_mw": 44.0 }, "geometry": { "type": "Point", "coordinates": [ -77.55913455970358, 39.081020118087395 ] } },
{ "type": "Feature", "properties": { "current_mw": 35.0 }, "geometry": { "type": "Point", "coordinates": [ -77.615397741551263, 39.1143825594852 ] } },
{ "type": "Feature", "properties": { "current_mw": 20.0 }, "geometry": { "type": "Point", "coordinates": [ -77.655618047627655, 39.155205489089511 ] } },
{ "type": "Feature", "properties": { "current_mw": 18.0 }, "geometry": { "type": "Point", "coordinates": [ -77.804453114863918, 38.903033400264817 ] } },
{ "type": "Feature", "properties": { "current_mw": 22.0 }, "geometry": { "type": "Point", "coordinates": [ -77.391006507679776, 39.445398302225819 ] } },
{ "type": "Feature", "properties": { "current_mw": 50.0 }, "geometry": { "type": "Point", "coordinates": [ -82.810267366464814, 39.980807531265491 ] } },
{ "type": "Feature", "properties": { "current_mw": 12.0 }, "geometry": { "type": "Point", "coordinates": [ -77.527184546813018, 38.377360914318096 ] } },
{ "type": "Feature", "properties": { "current_mw": 55.0 }, "geometry": { "type": "Point", "coordinates": [ -119.713914068806986, 46.157297761188531 ] } },
{ "type": "Feature", "properties": { "current_mw": 38.0 }, "geometry": { "type": "Point", "coordinates": [ -77.181047104306487, 37.392800272161139 ] } },
{ "type": "Feature", "properties": { "current_mw": 200.0 }, "geometry": { "type": "Point", "coordinates": [ -93.443398751658634, 41.535791588868605 ] } },
{ "type": "Feature", "properties": { "current_mw": 30.0 }, "geometry": { "type": "Point", "coordinates": [ -93.462977284511524, 41.929014217089104 ] } },
{ "type": "Feature", "properties": { "current_mw": 55.0 }, "geometry": { "type": "Point", "coordinates": [ -77.602674990692648, 38.428239093881714 ] } },
{ "type": "Feature", "properties": { "current_mw": 20.0 }, "geometry": { "type": "Point", "coordinates": [ -77.190423433832535, 38.738246607083674 ] } },
{ "type": "Feature", "properties": { "current_mw": 20.0 }, "geometry": { "type": "Point", "coordinates": [ -77.367489712307588, 38.695574412576228 ] } },
{ "type": "Feature", "properties": { "current_mw": 30.0 }, "geometry": { "type": "Point", "coordinates": [ -77.190651204469901, 38.797960379236017 ] } },
{ "type": "Feature", "properties": { "current_mw": 15.0 }, "geometry": { "type": "Point", "coordinates": [ -98.843506728508729, 29.515231394844999 ] } },
{ "type": "Feature", "properties": { "current_mw": 50.0 }, "geometry": { "type": "Point", "coordinates": [ -88.976701592028689, 41.994127733425948 ] } },
{ "type": "Feature", "properties": { "current_mw": 36.0 }, "geometry": { "type": "Point", "coordinates": [ -120.161116268889131, 47.292001366186412 ] } },
{ "type": "Feature", "properties": { "current_mw": 70.0 }, "geometry": { "type": "Point", "coordinates": [ -95.757556610650155, 41.059416594729832 ] } },
{ "type": "Feature", "properties": { "current_mw": 42.0 }, "geometry": { "type": "Point", "coordinates": [ -83.352594542347532, 33.138752578434968 ] } },
{ "type": "Feature", "properties": { "current_mw": 60.0 }, "geometry": { "type": "Point", "coordinates": [ -119.645413542656527, 45.87137981707798 ] } },
{ "type": "Feature", "properties": { "current_mw": 16.0 }, "geometry": { "type": "Point", "coordinates": [ -77.526760064227204, 38.942413993272233 ] } },
{ "type": "Feature", "properties": { "current_mw": 50.0 }, "geometry": { "type": "Point", "coordinates": [ -77.225566341551556, 38.838877654343321 ] } },
{ "type": "Feature", "properties": { "current_mw": 50.0 }, "geometry": { "type": "Point", "coordinates": [ -119.450238420209701, 46.061027038384751 ] } },
{ "type": "Feature", "properties": { "current_mw": 20.0 }, "geometry": { "type": "Point", "coordinates": [ -77.63820710379116, 39.057294586411743 ] } },
{ "type": "Feature", "properties": { "current_mw": 27.5 }, "geometry": { "type": "Point", "coordinates": [ -119.730658899701197, 47.390899190887673 ] } },
{ "type": "Feature", "properties": { "current_mw": 50.0 }, "geometry": { "type": "Point", "coordinates": [ -112.093980024571906, 40.318981274823017 ] } },
{ "type": "Feature", "properties": { "current_mw": 10.0 }, "geometry": { "type": "Point", "coordinates": [ -119.889352004576011, 47.34464801551939 ] } },
{ "type": "Feature", "properties": { "current_mw": 20.0 }, "geometry": { "type": "Point", "coordinates": [ -77.484707341054289, 38.875952284300624 ] } }
]
}
